[{"OBJECT_NAME":"STARLINK-34837","OBJECT_ID":"2025-192V","EPOCH":"2026-03-09T22:00:01.999584","MEAN_MOTION":15.3019202,"ECCENTRICITY":8.322e-5,"INCLINATION":53.1586,"RA_OF_ASC_NODE":231.2114,"ARG_OF_PERICENTER":82.97,"MEAN_ANOMALY":152.4738,"EPHEMERIS_TYPE":0,"CLASSIFICATION_TYPE":"U","NORAD_CAT_ID":65423,"ELEMENT_SET_NO":999,"REV_AT_EPOCH":573,"BSTAR":0.0028885231,"MEAN_MOTION_DOT":0.00086166,"MEAN_MOTION_DDOT":0},{"OBJECT_NAME":"ST5-C","OBJECT_ID":"2006-008C","EPOCH":"2026-03-09T21:55:58.762848","MEAN_MOTION":14.1017189,"ECCENTRICITY":0.08295695,"INCLINATION":105.4657,"RA_OF_ASC_NODE":199.8685,"ARG_OF_PERICENTER":126.1146,"MEAN_ANOMALY":241.9722,"EPHEMERIS_TYPE":0,"CLASSIFICATION_TYPE":"U","NORAD_CAT_ID":28982,"ELEMENT_SET_NO":999,"REV_AT_EPOCH":54192,"BSTAR":0.0012623918,"MEAN_MOTION_DOT":0.0010872,"MEAN_MOTION_DDOT":6.160981e-6}]
